NORAD_CAT_ID,OBJECT_NAME,OBJECT_TYPE,EPOCH,MEAN_MOTION,ECCENTRICITY,INCLINATION,RA_OF_ASC_NODE,ARG_OF_PERICENTER,MEAN_ANOMALY,BSTAR,MEAN_MOTION_DOT,MEAN_MOTION_DDOT,TLE_LINE0,TLE_LINE1,TLE_LINE2,SEMIMAJOR_AXIS,PERIOD,APOGEE,PERIGEE,DECAYED
55289.0,STARLINK-5320,PAYLOAD,2023-02-04 10:00:00,15.75288295,0.0003734,70.0001,24.2983,257.9499,18.4136,-0.0060531,-0.00830231,0.0,0 STARLINK-5320,1 55289U 23010W   23035.41667824 -.00830231  00000-0 -60531-2 0  9992,2 55289  70.0001  24.2983 0003734 257.9499  18.4136 15.75288295  3007,6721.948,91.412,346.323,341.303,0.0
55289.0,STARLINK-5320,PAYLOAD,2023-02-04 14:00:01,15.75007984,0.0003475,69.9993,23.8249,264.3104,236.8384,-0.0063483,-0.00857226,0.0,0 STARLINK-5320,1 55289U 23010W   23035.58334491 -.00857226  00000-0 -63483-2 0  9993,2 55289  69.9993  23.8249 0003475 264.3104 236.8384 15.75007984  1307,6722.745,91.428,346.947,342.274,0.0
55289.0,STARLINK-5320,PAYLOAD,2023-02-04 22:00:00,15.74392817,0.0003489,70.0001,22.8822,263.3564,326.8479,-0.006319,-0.00833092,0.0,0 STARLINK-5320,1 55289U 23010W   23035.91667824 -.00833092  00000-0 -63190-2 0  9999,2 55289  70.0001  22.8822 0003489 263.3564 326.8479 15.74392817  1306,6724.497,91.464,348.708,344.015,0.0
55289.0,STARLINK-5320,PAYLOAD,2023-02-05 06:00:00,15.74094989,0.000405,69.9966,21.9287,260.9563,57.6667,0.00072165,0.00104521,0.0,0 STARLINK-5320,1 55289U 23010W   23036.25001157  .00104521  00000-0  72165-3 0  9997,2 55289  69.9966  21.9287 0004050 260.9563  57.6667 15.74094989  3135,6725.345,91.481,349.933,344.486,0.0
55289.0,STARLINK-5320,PAYLOAD,2023-02-05 14:00:01,15.73210232,0.0003356,69.9966,20.9885,268.9039,137.3449,-0.0069241,-0.00864101,0.0,0 STARLINK-5320,1 55289U 23010W   23036.58335648 -.00864101  00000-0 -69241-2 0  9997,2 55289  69.9966  20.9885 0003356 268.9039 137.3449 15.73210232  1303,6727.866,91.533,351.989,347.473,0.0
55289.0,STARLINK-5320,PAYLOAD,2023-02-05 16:00:00,15.73028032,0.0003304,69.9968,20.753,268.1017,249.883,-0.006488,-0.00808698,0.0,0 STARLINK-5320,1 55289U 23010W   23036.66667824 -.00808698  00000-0 -64880-2 0  9993,2 55289  69.9968  20.7530 0003304 268.1017 249.8830 15.73028032  3200,6728.386,91.543,352.474,348.027,0.0
55289.0,STARLINK-5320,PAYLOAD,2023-02-05 22:00:00,15.72620871,0.0003393,69.9972,20.0472,266.5336,226.5357,-0.0069727,-0.00849916,0.0,0 STARLINK-5320,1 55289U 23010W   23036.91667824 -.00849916  00000-0 -69727-2 0  9994,2 55289  69.9972  20.0472 0003393 266.5336 226.5357 15.72620871  1300,6729.547,91.567,353.695,349.128,0.0
55289.0,STARLINK-5320,PAYLOAD,2023-02-06 06:00:00,15.71970256,0.0003638,69.9974,19.1068,274.2684,305.0083,-0.0066486,-0.00793678,0.0,0 STARLINK-5320,1 55289U 23010W   23037.25001157 -.00793678  00000-0 -66486-2 0  9995,2 55289  69.9974  19.1068 0003638 274.2684 305.0083 15.71970256  3299,6731.404,91.605,355.717,350.82,0.0
55289.0,STARLINK-5320,PAYLOAD,2023-02-06 14:00:01,15.71418077,0.0003621,69.9971,18.1672,270.9584,33.7628,-0.0074843,-0.00865272,0.0,0 STARLINK-5320,1 55289U 23010W   23037.58334491 -.00865272  00000-0 -74843-2 0  9997,2 55289  69.9971  18.1672 0003621 270.9584  33.7628 15.71418077  1308,6732.98,91.637,357.283,352.407,0.0
55289.0,STARLINK-5320,PAYLOAD,2023-02-06 22:00:00,15.70824711,0.0003588,69.9974,17.2286,268.0843,121.3751,-0.0075455,-0.00852122,0.0,0 STARLINK-5320,1 55289U 23010W   23037.91667824 -.00852122  00000-0 -75455-2 0  9993,2 55289  69.9974  17.2286 0003588 268.0843 121.3751 15.70824711  1306,6734.676,91.672,358.957,354.124,0.0
55289.0,STARLINK-5320,PAYLOAD,2023-02-07 00:00:00,15.70665305,0.0003506,69.9976,16.9939,270.6222,229.9164,-0.0073887,-0.00830935,0.0,0 STARLINK-5320,1 55289U 23010W   23038.00001157 -.00830935  00000-0 -73887-2 0  9990,2 55289  69.9976  16.9939 0003506 270.6222 229.9164 15.70665305  3418,6735.131,91.681,359.358,354.635,0.0
55289.0,STARLINK-5320,PAYLOAD,2023-02-07 08:00:01,15.69914414,0.0003474,69.9982,16.0561,277.7709,306.6376,0.0001921,0.0002294,0.0,0 STARLINK-5320,1 55289U 23010W   23038.33334491  .00022940  00000-0  19210-3 0  9994,2 55289  69.9982  16.0561 0003474 277.7709 306.6376 15.69914414  3468,6737.279,91.725,361.484,356.803,0.0
55289.0,STARLINK-5320,PAYLOAD,2023-02-07 14:00:01,15.69956476,0.0003463,69.9983,15.3529,273.0544,283.8478,-0.00066488,-0.00079516,0.0,0 STARLINK-5320,1 55289U 23010W   23038.58334491 -.00079516  00000-0 -66488-3 0  9993,2 55289  69.9983  15.3529 0003463 273.0544 283.8478 15.69956476  1303,6737.159,91.722,361.357,356.69,0.0
55289.0,STARLINK-5320,PAYLOAD,2023-02-07 22:00:00,15.69937416,0.000351,69.9994,14.4156,266.3161,13.9193,-3.4289e-05,-4.336e-05,0.0,0 STARLINK-5320,1 55289U 23010W   23038.91667824 -.00004336  00000-0 -34289-4 0  9992,2 55289  69.9994  14.4156 0003510 266.3161  13.9193 15.69937416  1303,6737.213,91.723,361.443,356.713,0.0
55289.0,STARLINK-5320,PAYLOAD,2023-02-08 08:00:01,15.69904929,0.000343,70.0,13.2438,275.2814,199.1548,0.00015347,0.00018266,0.0,0 STARLINK-5320,1 55289U 23010W   23039.33334491  .00018266  00000-0  15347-3 0  9998,2 55289  70.0000  13.2438 0003430 275.2814 199.1548 15.69904929  3619,6737.306,91.725,361.482,356.86,0.0
55289.0,STARLINK-5320,PAYLOAD,2023-02-08 14:00:01,15.69938302,0.0003352,69.9999,12.541,275.552,171.358,-0.0003603,-0.00043338,0.0,0 STARLINK-5320,1 55289U 23010W   23039.58334491 -.00043338  00000-0 -36030-3 0  9997,2 55289  69.9999  12.5410 0003352 275.5520 171.3580 15.69938302  1309,6737.211,91.723,361.334,356.817,0.0
55289.0,STARLINK-5320,PAYLOAD,2023-02-08 22:00:00,15.69947028,0.000332,70.0005,11.6042,270.9619,259.2741,-9.944e-05,-0.00012163,0.0,0 STARLINK-5320,1 55289U 23010W   23039.91667824 -.00012163  00000-0 -99440-4 0  9990,2 55289  70.0005  11.6042 0003320 270.9619 259.2741 15.69947028  1304,6737.186,91.723,361.287,356.814,0.0
55289.0,STARLINK-5320,PAYLOAD,2023-02-09 12:00:00,15.69962541,0.0003411,69.9999,9.9639,278.9801,307.1089,-0.00082043,-0.00097879,0.0,0 STARLINK-5320,1 55289U 23010W   23040.50001157 -.00097879  00000-0 -82043-3 0  9995,2 55289  69.9999   9.9639 0003411 278.9801 307.1089 15.69962541  1302,6737.141,91.722,361.304,356.708,0.0
55289.0,STARLINK-5320,PAYLOAD,2023-02-09 22:00:00,15.69893694,0.0003392,70.0005,8.7924,266.9318,153.2961,0.00058596,0.00070752,0.0,0 STARLINK-5320,1 55289U 23010W   23040.91667824  .00070752  00000-0  58596-3 0  9994,2 55289  70.0005   8.7924 0003392 266.9318 153.2961 15.69893694  3869,6737.338,91.726,361.488,356.918,0.0
55289.0,STARLINK-5320,PAYLOAD,2023-02-10 04:00:00,15.69939365,0.0003405,70.0006,8.0895,269.7184,123.003,4.0658e-05,4.682e-05,0.0,0 STARLINK-5320,1 55289U 23010W   23041.16667824  .00004682  00000-0  40658-4 0  9992,2 55289  70.0006   8.0895 0003405 269.7184 123.0030 15.69939365  1302,6737.207,91.723,361.366,356.778,0.0
55289.0,STARLINK-5320,PAYLOAD,2023-02-10 18:00:00,15.69910148,0.0003905,70.0005,6.4496,268.1946,180.3852,0.00055018,0.00066435,0.0,0 STARLINK-5320,1 55289U 23010W   23041.75001157  .00066435  00000-0  55018-3 0  9997,2 55289  70.0005   6.4496 0003905 268.1946 180.3852 15.69910148  3997,6737.291,91.725,361.787,356.525,0.0
55289.0,STARLINK-5320,PAYLOAD,2023-02-10 22:00:00,15.69968365,0.0003866,70.0008,5.9812,269.1276,41.0991,-0.0004248,-0.00051081,0.0,0 STARLINK-5320,1 55289U 23010W   23041.91667824 -.00051081  00000-0 -42480-3 0  9996,2 55289  70.0008   5.9812 0003866 269.1276  41.0991 15.69968365  1303,6737.125,91.722,361.594,356.385,0.0
55289.0,STARLINK-5320,PAYLOAD,2023-02-11 04:19:43,15.69987765,0.0003312,69.9997,5.2394,267.608,92.4736,0.00083287,0.00101417,0.0,0 STARLINK-5320,1 55289U 23010W   23042.18036094  .00101417  00000-0  83287-3 0  9992,2 55289  69.9997   5.2394 0003312 267.6080  92.4736 15.69987765  4065,6737.069,91.72,361.165,356.703,0.0
55289.0,STARLINK-5320,PAYLOAD,2023-02-11 08:54:58,15.69976294,0.00041,69.9998,4.7018,273.7146,86.3581,0.00079664,0.00096912,0.0,0 STARLINK-5320,1 55289U 23010W   23042.37150934  .00096912  00000-0  79664-3 0  9990,2 55289  69.9998   4.7018 0004100 273.7146  86.3581 15.69976294  4098,6737.102,91.721,361.729,356.205,0.0
55289.0,STARLINK-5320,PAYLOAD,2023-02-12 03:16:00,15.69996151,0.0003479,70.0011,2.5524,269.7933,90.2864,0.00089318,0.00108915,0.0,0 STARLINK-5320,1 55289U 23010W   23043.13611362  .00108915  00000-0  89318-3 0  9996,2 55289  70.0011   2.5524 0003479 269.7933  90.2864 15.69996151  4218,6737.045,91.72,361.254,356.566,0.0
55289.0,STARLINK-5320,PAYLOAD,2023-02-12 06:19:30,15.69928832,0.0003219,70.0015,2.1942,275.4351,84.6477,0.00049661,0.00059938,0.0,0 STARLINK-5320,1 55289U 23010W   23043.26355041  .00059938  00000-0  49661-3 0  9996,2 55289  70.0015   2.1942 0003219 275.4351  84.6477 15.69928832  4232,6737.238,91.724,361.271,356.934,0.0
55289.0,STARLINK-5320,PAYLOAD,2023-02-13 03:44:02,15.69986313,0.0003464,70.0019,359.6869,263.0291,97.0511,0.0006147,0.00074552,0.0,0 STARLINK-5320,1 55289U 23010W   23044.15558082  .00074552  00000-0  61470-3 0  9996,2 55289  70.0019 359.6869 0003464 263.0291  97.0511 15.69986313  4372,6737.073,91.721,361.272,356.604,0.0
55289.0,STARLINK-5320,PAYLOAD,2023-02-13 14:26:18,15.69907025,0.0001781,70.0019,358.4317,271.4164,88.6827,0.00041085,0.00049435,0.0,0 STARLINK-5320,1 55289U 23010W   23044.60160747  .00049435  00000-0  41085-3 0  9995,2 55289  70.0019 358.4317 0001781 271.4164  88.6827 15.69907025  4446,6737.3,91.725,360.365,357.965,0.0
55289.0,STARLINK-5320,PAYLOAD,2023-02-15 06:11:51,15.69912728,0.0003341,70.0003,353.7743,266.2901,93.7913,6.0324e-05,7.043e-05,0.0,0 STARLINK-5320,1 55289U 23010W   23046.25823480  .00007043  00000-0  60324-4 0  9995,2 55289  70.0003 353.7743 0003341 266.2901  93.7913 15.69912728  4703,6737.284,91.725,361.4,356.898,0.0
55289.0,STARLINK-5320,PAYLOAD,2023-02-15 13:50:36,15.69956862,0.0003494,70.0008,352.8777,264.2352,95.8446,0.00041434,0.00049974,0.0,0 STARLINK-5320,1 55289U 23010W   23046.57681515  .00049974  00000-0  41434-3 0  9990,2 55289  70.0008 352.8777 0003494 264.2352  95.8446 15.69956862  4758,6737.157,91.722,361.376,356.668,0.0
